[{"OBJECT_NAME":"ONEWEB-0082","OBJECT_ID":"2020-020AE","EPOCH":"2026-01-03T03:36:59.522688","MEAN_MOTION":13.11415434,"ECCENTRICITY":0.00018638,"INCLINATION":87.8848,"RA_OF_ASC_NODE":53.9031,"ARG_OF_PERICENTER":91.7615,"MEAN_ANOMALY":268.3727,"EPHEMERIS_TYPE":0,"CLASSIFICATION_TYPE":"U","NORAD_CAT_ID":45452,"ELEMENT_SET_NO":999,"REV_AT_EPOCH":28104,"BSTAR":-0.00063179562,"MEAN_MOTION_DOT":-2.11e-6,"MEAN_MOTION_DDOT":0},{"OBJECT_NAME":"ONEWEB-0050","OBJECT_ID":"2020-020AF","EPOCH":"2026-01-03T04:53:35.479104","MEAN_MOTION":14.89659833,"ECCENTRICITY":0.00027299,"INCLINATION":88.9232,"RA_OF_ASC_NODE":255.7152,"ARG_OF_PERICENTER":159.2139,"MEAN_ANOMALY":200.9201,"EPHEMERIS_TYPE":0,"CLASSIFICATION_TYPE":"U","NORAD_CAT_ID":45453,"ELEMENT_SET_NO":999,"REV_AT_EPOCH":31581,"BSTAR":0.00049463965,"MEAN_MOTION_DOT":4.748e-5,"MEAN_MOTION_DDOT":0},{"OBJECT_NAME":"ONEWEB-0034","OBJECT_ID":"2020-020AG","EPOCH":"2026-01-03T02:17:38.098176","MEAN_MOTION":13.11419111,"ECCENTRICITY":0.00017377,"INCLINATION":87.884,"RA_OF_ASC_NODE":53.9257,"ARG_OF_PERICENTER":97.8895,"MEAN_ANOMALY":262.2431,"EPHEMERIS_TYPE":0,"CLASSIFICATION_TYPE":"U","NORAD_CAT_ID":45454,"ELEMENT_SET_NO":999,"REV_AT_EPOCH":28095,"BSTAR":-0.00066834898,"MEAN_MOTION_DOT":-2.24e-6,"MEAN_MOTION_DDOT":0},{"OBJECT_NAME":"ONEWEB-0060","OBJECT_ID":"2020-020AH","EPOCH":"2026-01-03T03:26:01.392288","MEAN_MOTION":13.11411233,"ECCENTRICITY":0.00024238,"INCLINATION":87.8827,"RA_OF_ASC_NODE":53.9321,"ARG_OF_PERICENTER":75.5528,"MEAN_ANOMALY":284.5869,"EPHEMERIS_TYPE":0,"CLASSIFICATION_TYPE":"U","NORAD_CAT_ID":45455,"ELEMENT_SET_NO":999,"REV_AT_EPOCH":28091,"BSTAR":0.0035668823,"MEAN_MOTION_DOT":1.277e-5,"MEAN_MOTION_DDOT":0},{"OBJECT_NAME":"ONEWEB-0086","OBJECT_ID":"2020-020AJ","EPOCH":"2026-01-03T04:45:22.337280","MEAN_MOTION":13.11416882,"ECCENTRICITY":0.00016262,"INCLINATION":87.8838,"RA_OF_ASC_NODE":53.9019,"ARG_OF_PERICENTER":70.383,"MEAN_ANOMALY":289.7473,"EPHEMERIS_TYPE":0,"CLASSIFICATION_TYPE":"U","NORAD_CAT_ID":45456,"ELEMENT_SET_NO":999,"REV_AT_EPOCH":28098,"BSTAR":0.0015336415,"MEAN_MOTION_DOT":5.56e-6,"MEAN_MOTION_DDOT":0},{"OBJECT_NAME":"ONEWEB-0088","OBJECT_ID":"2020-020AK","EPOCH":"2026-01-03T02:23:45.657600","MEAN_MOTION":13.1141977,"ECCENTRICITY":0.00020078,"INCLINATION":87.8853,"RA_OF_ASC_NODE":53.8795,"ARG_OF_PERICENTER":101.6853,"MEAN_ANOMALY":258.45,"EPHEMERIS_TYPE":0,"CLASSIFICATION_TYPE":"U","NORAD_CAT_ID":45457,"ELEMENT_SET_NO":999,"REV_AT_EPOCH":28090,"BSTAR":-0.00044005594,"MEAN_MOTION_DOT":-1.43e-6,"MEAN_MOTION_DDOT":0},{"OBJECT_NAME":"ONEWEB-0102","OBJECT_ID":"2020-100A","EPOCH":"2026-01-03T07:25:13.959840","MEAN_MOTION":13.12443535,"ECCENTRICITY":0.00016178,"INCLINATION":87.8919,"RA_OF_ASC_NODE":23.4285,"ARG_OF_PERICENTER":90.956,"MEAN_ANOMALY":269.1754,"EPHEMERIS_TYPE":0,"CLASSIFICATION_TYPE":"U","NORAD_CAT_ID":47258,"ELEMENT_SET_NO":999,"REV_AT_EPOCH":24310,"BSTAR":-0.0010283316,"MEAN_MOTION_DOT":-3.57e-6,"MEAN_MOTION_DDOT":0},{"OBJECT_NAME":"ONEWEB-0109","OBJECT_ID":"2020-100B","EPOCH":"2026-01-03T02:08:06.705600","MEAN_MOTION":13.124438,"ECCENTRICITY":0.00016198,"INCLINATION":87.8925,"RA_OF_ASC_NODE":23.4427,"ARG_OF_PERICENTER":93.0936,"MEAN_ANOMALY":267.0378,"EPHEMERIS_TYPE":0,"CLASSIFICATION_TYPE":"U","NORAD_CAT_ID":47259,"ELEMENT_SET_NO":999,"REV_AT_EPOCH":24290,"BSTAR":-0.00054936997,"MEAN_MOTION_DOT":-1.85e-6,"MEAN_MOTION_DDOT":0},{"OBJECT_NAME":"ONEWEB-0110","OBJECT_ID":"2020-100C","EPOCH":"2026-01-03T02:47:10.187232","MEAN_MOTION":13.1244348,"ECCENTRICITY":0.00017365,"INCLINATION":87.8926,"RA_OF_ASC_NODE":23.4216,"ARG_OF_PERICENTER":82.0668,"MEAN_ANOMALY":278.0658,"EPHEMERIS_TYPE":0,"CLASSIFICATION_TYPE":"U","NORAD_CAT_ID":47260,"ELEMENT_SET_NO":999,"REV_AT_EPOCH":24307,"BSTAR":0.0013926512,"MEAN_MOTION_DOT":5.14e-6,"MEAN_MOTION_DDOT":0},{"OBJECT_NAME":"ONEWEB-0111","OBJECT_ID":"2020-100D","EPOCH":"2026-01-03T07:10:37.493184","MEAN_MOTION":13.12443246,"ECCENTRICITY":0.00018513,"INCLINATION":87.8925,"RA_OF_ASC_NODE":23.4029,"ARG_OF_PERICENTER":89.1813,"MEAN_ANOMALY":270.9528,"EPHEMERIS_TYPE":0,"CLASSIFICATION_TYPE":"U","NORAD_CAT_ID":47261,"ELEMENT_SET_NO":999,"REV_AT_EPOCH":24293,"BSTAR":-0.0010804103,"MEAN_MOTION_DOT":-3.76e-6,"MEAN_MOTION_DDOT":0},{"OBJECT_NAME":"ONEWEB-0114","OBJECT_ID":"2020-100E","EPOCH":"2026-01-03T02:25:12.017856","MEAN_MOTION":13.12443895,"ECCENTRICITY":0.00015059,"INCLINATION":87.8928,"RA_OF_ASC_NODE":23.4375,"ARG_OF_PERICENTER":103.4381,"MEAN_ANOMALY":256.6916,"EPHEMERIS_TYPE":0,"CLASSIFICATION_TYPE":"U","NORAD_CAT_ID":47262,"ELEMENT_SET_NO":999,"REV_AT_EPOCH":24286,"BSTAR":0.00038118017,"MEAN_MOTION_DOT":1.5e-6,"MEAN_MOTION_DDOT":0},{"OBJECT_NAME":"ONEWEB-0117","OBJECT_ID":"2020-100F","EPOCH":"2026-01-03T00:23:12.930432","MEAN_MOTION":13.12442948,"ECCENTRICITY":0.00017173,"INCLINATION":87.8922,"RA_OF_ASC_NODE":23.4507,"ARG_OF_PERICENTER":90.7592,"MEAN_ANOMALY":269.3733,"EPHEMERIS_TYPE":0,"CLASSIFICATION_TYPE":"U","NORAD_CAT_ID":47263,"ELEMENT_SET_NO":999,"REV_AT_EPOCH":24286,"BSTAR":-0.00015512897,"MEAN_MOTION_DOT":-4.3e-7,"MEAN_MOTION_DDOT":0},{"OBJECT_NAME":"ONEWEB-0118","OBJECT_ID":"2020-100G","EPOCH":"2026-01-03T06:41:22.779168","MEAN_MOTION":13.12440645,"ECCENTRICITY":0.00017136,"INCLINATION":87.8926,"RA_OF_ASC_NODE":23.3989,"ARG_OF_PERICENTER":104.2714,"MEAN_ANOMALY":255.8605,"EPHEMERIS_TYPE":0,"CLASSIFICATION_TYPE":"U","NORAD_CAT_ID":47264,"ELEMENT_SET_NO":999,"REV_AT_EPOCH":24309,"BSTAR":0.00080980516,"MEAN_MOTION_DOT":3.04e-6,"MEAN_MOTION_DDOT":0},{"OBJECT_NAME":"ONEWEB-0119","OBJECT_ID":"2020-100H","EPOCH":"2026-01-03T07:17:56.757696","MEAN_MOTION":13.12431969,"ECCENTRICITY":0.00016386,"INCLINATION":87.8915,"RA_OF_ASC_NODE":23.4255,"ARG_OF_PERICENTER":92.0024,"MEAN_ANOMALY":268.1293,"EPHEMERIS_TYPE":0,"CLASSIFICATION_TYPE":"U","NORAD_CAT_ID":47265,"ELEMENT_SET_NO":999,"REV_AT_EPOCH":24307,"BSTAR":-0.0011044486,"MEAN_MOTION_DOT":-3.85e-6,"MEAN_MOTION_DDOT":0},{"OBJECT_NAME":"ONEWEB-0120","OBJECT_ID":"2020-100J","EPOCH":"2026-01-03T02:22:57.098208","MEAN_MOTION":13.1244294,"ECCENTRICITY":0.00016553,"INCLINATION":87.8917,"RA_OF_ASC_NODE":23.4678,"ARG_OF_PERICENTER":93.7797,"MEAN_ANOMALY":266.3521,"EPHEMERIS_TYPE":0,"CLASSIFICATION_TYPE":"U","NORAD_CAT_ID":47266,"ELEMENT_SET_NO":999,"REV_AT_EPOCH":24307,"BSTAR":0.00030734189,"MEAN_MOTION_DOT":1.23e-6,"MEAN_MOTION_DDOT":0},{"OBJECT_NAME":"ONEWEB-0121","OBJECT_ID":"2020-100K","EPOCH":"2026-01-03T02:05:39.327936","MEAN_MOTION":13.12444139,"ECCENTRICITY":0.00017918,"INCLINATION":87.8924,"RA_OF_ASC_NODE":23.4405,"ARG_OF_PERICENTER":85.4168,"MEAN_ANOMALY":274.7165,"EPHEMERIS_TYPE":0,"CLASSIFICATION_TYPE":"U","NORAD_CAT_ID":47267,"ELEMENT_SET_NO":999,"REV_AT_EPOCH":24298,"BSTAR":-0.00066764912,"MEAN_MOTION_DOT":-2.27e-6,"MEAN_MOTION_DDOT":0}]
