ONEWEB-0082             
1 45452U 20020AE  26003.15068892 -.00000211  00000+0 -63180-3 0  9990
2 45452  87.8848  53.9031 0001863  91.7615 268.3727 13.11415434281040
ONEWEB-0050             
1 45453U 20020AF  26003.20388286  .00004748  00000+0  49464-3 0  9995
2 45453  88.9232 255.7152 0002729 159.2139 200.9201 14.89659833315810
ONEWEB-0034             
1 45454U 20020AG  26003.09557984 -.00000224  00000+0 -66835-3 0  9994
2 45454  87.8840  53.9257 0001737  97.8895 262.2431 13.11419111280951
ONEWEB-0060             
1 45455U 20020AH  26003.14307167  .00001277  00000+0  35669-2 0  9994
2 45455  87.8827  53.9321 0002423  75.5528 284.5869 13.11411233280913
ONEWEB-0086             
1 45456U 20020AJ  26003.19817520  .00000556  00000+0  15336-2 0  9997
2 45456  87.8838  53.9019 0001626  70.3830 289.7473 13.11416882280983
ONEWEB-0088             
1 45457U 20020AK  26003.09983400 -.00000143  00000+0 -44006-3 0  9999
2 45457  87.8853  53.8795 0002007 101.6853 258.4500 13.11419770280903
ONEWEB-0102             
1 47258U 20100A   26003.30918935 -.00000357  00000+0 -10283-2 0  9990
2 47258  87.8919  23.4285 0001617  90.9560 269.1754 13.12443535243103
ONEWEB-0109             
1 47259U 20100B   26003.08896650 -.00000185  00000+0 -54937-3 0  9999
2 47259  87.8925  23.4427 0001619  93.0936 267.0378 13.12443800242903
ONEWEB-0110             
1 47260U 20100C   26003.11609013  .00000514  00000+0  13927-2 0  9997
2 47260  87.8926  23.4216 0001736  82.0668 278.0658 13.12443480243078
ONEWEB-0111             
1 47261U 20100D   26003.29904506 -.00000376  00000+0 -10804-2 0  9991
2 47261  87.8925  23.4029 0001851  89.1813 270.9528 13.12443246242939
ONEWEB-0114             
1 47262U 20100E   26003.10083354  .00000150  00000+0  38118-3 0  9998
2 47262  87.8928  23.4375 0001505 103.4381 256.6916 13.12443895242867
ONEWEB-0117             
1 47263U 20100F   26003.01612188 -.00000043  00000+0 -15513-3 0  9999
2 47263  87.8922  23.4507 0001717  90.7592 269.3733 13.12442948242862
ONEWEB-0118             
1 47264U 20100G   26003.27873587  .00000304  00000+0  80981-3 0  9999
2 47264  87.8926  23.3989 0001713 104.2714 255.8605 13.12440645243099
ONEWEB-0119             
1 47265U 20100H   26003.30412914 -.00000385  00000+0 -11044-2 0  9991
2 47265  87.8915  23.4255 0001638  92.0024 268.1293 13.12431969243076
ONEWEB-0120             
1 47266U 20100J   26003.09927197  .00000123  00000+0  30734-3 0  9998
2 47266  87.8917  23.4678 0001655  93.7797 266.3521 13.12442940243077
ONEWEB-0121             
1 47267U 20100K   26003.08726074 -.00000227  00000+0 -66765-3 0  9999
2 47267  87.8924  23.4405 0001791  85.4168 274.7165 13.12444139242983
